[{"OBJECT_NAME":"ONEWEB-0388","OBJECT_ID":"2021-090AM","EPOCH":"2026-04-07T03:21:39.688416","MEAN_MOTION":13.19727111,"ECCENTRICITY":0.0001672,"INCLINATION":87.9181,"RA_OF_ASC_NODE":319.1372,"ARG_OF_PERICENTER":88.9164,"MEAN_ANOMALY":271.216,"EPHEMERIS_TYPE":0,"CLASSIFICATION_TYPE":"U","NORAD_CAT_ID":49314,"ELEMENT_SET_NO":999,"REV_AT_EPOCH":21704,"BSTAR":-8.228e-05,"MEAN_MOTION_DOT":-2e-07,"MEAN_MOTION_DDOT":0.0},{"OBJECT_NAME":"ONEWEB-0389","OBJECT_ID":"2021-132A","EPOCH":"2026-04-07T04:45:40.775040","MEAN_MOTION":13.1764893,"ECCENTRICITY":0.0001469,"INCLINATION":87.9187,"RA_OF_ASC_NODE":19.9676,"ARG_OF_PERICENTER":82.8312,"MEAN_ANOMALY":277.2987,"EPHEMERIS_TYPE":0,"CLASSIFICATION_TYPE":"U","NORAD_CAT_ID":50469,"ELEMENT_SET_NO":999,"REV_AT_EPOCH":20873,"BSTAR":0.00016413,"MEAN_MOTION_DOT":7.7e-07,"MEAN_MOTION_DDOT":0.0},{"OBJECT_NAME":"ONEWEB-0390","OBJECT_ID":"2021-132B","EPOCH":"2026-04-07T04:48:07.439904","MEAN_MOTION":13.17650223,"ECCENTRICITY":0.0001814,"INCLINATION":87.9184,"RA_OF_ASC_NODE":19.9678,"ARG_OF_PERICENTER":71.0131,"MEAN_ANOMALY":289.1197,"EPHEMERIS_TYPE":0,"CLASSIFICATION_TYPE":"U","NORAD_CAT_ID":50470,"ELEMENT_SET_NO":999,"REV_AT_EPOCH":20873,"BSTAR":0.00036548000000000006,"MEAN_MOTION_DOT":1.55e-06,"MEAN_MOTION_DDOT":0.0},{"OBJECT_NAME":"ONEWEB-0391","OBJECT_ID":"2021-132C","EPOCH":"2026-04-07T04:50:32.308512","MEAN_MOTION":13.17649067,"ECCENTRICITY":0.0001003,"INCLINATION":87.9185,"RA_OF_ASC_NODE":19.9766,"ARG_OF_PERICENTER":68.7607,"MEAN_ANOMALY":291.3632,"EPHEMERIS_TYPE":0,"CLASSIFICATION_TYPE":"U","NORAD_CAT_ID":50471,"ELEMENT_SET_NO":999,"REV_AT_EPOCH":20873,"BSTAR":0.00022653000000000001,"MEAN_MOTION_DOT":1.01e-06,"MEAN_MOTION_DDOT":0.0},{"OBJECT_NAME":"ONEWEB-0392","OBJECT_ID":"2021-132D","EPOCH":"2026-04-07T03:44:55.853664","MEAN_MOTION":13.17646855,"ECCENTRICITY":0.0001383,"INCLINATION":87.9192,"RA_OF_ASC_NODE":19.9486,"ARG_OF_PERICENTER":80.3312,"MEAN_ANOMALY":279.7976,"EPHEMERIS_TYPE":0,"CLASSIFICATION_TYPE":"U","NORAD_CAT_ID":50472,"ELEMENT_SET_NO":999,"REV_AT_EPOCH":20876,"BSTAR":-2.4769e-05,"MEAN_MOTION_DOT":3e-08,"MEAN_MOTION_DDOT":0.0},{"OBJECT_NAME":"ONEWEB-0393","OBJECT_ID":"2021-132E","EPOCH":"2026-04-07T04:59:03.922656","MEAN_MOTION":13.17649092,"ECCENTRICITY":0.000165,"INCLINATION":87.9185,"RA_OF_ASC_NODE":19.961,"ARG_OF_PERICENTER":79.0262,"MEAN_ANOMALY":281.1055,"EPHEMERIS_TYPE":0,"CLASSIFICATION_TYPE":"U","NORAD_CAT_ID":50473,"ELEMENT_SET_NO":999,"REV_AT_EPOCH":20876,"BSTAR":0.00029156,"MEAN_MOTION_DOT":1.26e-06,"MEAN_MOTION_DDOT":0.0},{"OBJECT_NAME":"ONEWEB-0394","OBJECT_ID":"2021-132F","EPOCH":"2026-04-07T03:40:45.751584","MEAN_MOTION":13.18685717,"ECCENTRICITY":0.0001573,"INCLINATION":87.9234,"RA_OF_ASC_NODE":349.5617,"ARG_OF_PERICENTER":83.5855,"MEAN_ANOMALY":276.5456,"EPHEMERIS_TYPE":0,"CLASSIFICATION_TYPE":"U","NORAD_CAT_ID":50474,"ELEMENT_SET_NO":999,"REV_AT_EPOCH":21223,"BSTAR":2.1019e-05,"MEAN_MOTION_DOT":2.1e-07,"MEAN_MOTION_DDOT":0.0},{"OBJECT_NAME":"ONEWEB-0395","OBJECT_ID":"2021-132G","EPOCH":"2026-04-07T05:03:55.390464","MEAN_MOTION":13.11415539,"ECCENTRICITY":0.0001704,"INCLINATION":87.8901,"RA_OF_ASC_NODE":35.1788,"ARG_OF_PERICENTER":74.3061,"MEAN_ANOMALY":285.8255,"EPHEMERIS_TYPE":0,"CLASSIFICATION_TYPE":"U","NORAD_CAT_ID":50475,"ELEMENT_SET_NO":999,"REV_AT_EPOCH":20641,"BSTAR":0.00074234,"MEAN_MOTION_DOT":2.76e-06,"MEAN_MOTION_DDOT":0.0},{"OBJECT_NAME":"ONEWEB-0396","OBJECT_ID":"2021-132H","EPOCH":"2026-04-07T03:31:15.621312","MEAN_MOTION":13.18684356,"ECCENTRICITY":0.0001634,"INCLINATION":87.9234,"RA_OF_ASC_NODE":349.575,"ARG_OF_PERICENTER":81.7731,"MEAN_ANOMALY":278.3586,"EPHEMERIS_TYPE":0,"CLASSIFICATION_TYPE":"U","NORAD_CAT_ID":50476,"ELEMENT_SET_NO":999,"REV_AT_EPOCH":21227,"BSTAR":0.00028631,"MEAN_MOTION_DOT":1.26e-06,"MEAN_MOTION_DDOT":0.0},{"OBJECT_NAME":"ONEWEB-0397","OBJECT_ID":"2021-132J","EPOCH":"2026-04-07T03:52:38.421984","MEAN_MOTION":13.1868538,"ECCENTRICITY":0.0001676,"INCLINATION":87.9234,"RA_OF_ASC_NODE":349.5721,"ARG_OF_PERICENTER":87.184,"MEAN_ANOMALY":272.9484,"EPHEMERIS_TYPE":0,"CLASSIFICATION_TYPE":"U","NORAD_CAT_ID":50477,"ELEMENT_SET_NO":999,"REV_AT_EPOCH":21225,"BSTAR":8.376100000000001e-06,"MEAN_MOTION_DOT":1.6e-07,"MEAN_MOTION_DDOT":0.0},{"OBJECT_NAME":"ONEWEB-0398","OBJECT_ID":"2021-132K","EPOCH":"2026-04-07T02:27:40.307904","MEAN_MOTION":13.11419608,"ECCENTRICITY":0.0001871,"INCLINATION":87.892,"RA_OF_ASC_NODE":35.1837,"ARG_OF_PERICENTER":69.28,"MEAN_ANOMALY":290.8528,"EPHEMERIS_TYPE":0,"CLASSIFICATION_TYPE":"U","NORAD_CAT_ID":50478,"ELEMENT_SET_NO":999,"REV_AT_EPOCH":20629,"BSTAR":8.636100000000001e-05,"MEAN_MOTION_DOT":4.3e-07,"MEAN_MOTION_DDOT":0.0},{"OBJECT_NAME":"ONEWEB-0399","OBJECT_ID":"2021-132L","EPOCH":"2026-04-07T05:47:49.913952","MEAN_MOTION":13.11416339,"ECCENTRICITY":0.0001509,"INCLINATION":87.8922,"RA_OF_ASC_NODE":35.1659,"ARG_OF_PERICENTER":91.3448,"MEAN_ANOMALY":268.7853,"EPHEMERIS_TYPE":0,"CLASSIFICATION_TYPE":"U","NORAD_CAT_ID":50479,"ELEMENT_SET_NO":999,"REV_AT_EPOCH":20630,"BSTAR":-0.0014396,"MEAN_MOTION_DOT":-4.97e-06,"MEAN_MOTION_DDOT":0.0},{"OBJECT_NAME":"ONEWEB-0400","OBJECT_ID":"2021-132M","EPOCH":"2026-04-07T03:21:45.164448","MEAN_MOTION":13.1868553,"ECCENTRICITY":0.0001762,"INCLINATION":87.9235,"RA_OF_ASC_NODE":349.5662,"ARG_OF_PERICENTER":74.7711,"MEAN_ANOMALY":285.3616,"EPHEMERIS_TYPE":0,"CLASSIFICATION_TYPE":"U","NORAD_CAT_ID":50480,"ELEMENT_SET_NO":999,"REV_AT_EPOCH":21224,"BSTAR":0.00026027,"MEAN_MOTION_DOT":1.16e-06,"MEAN_MOTION_DDOT":0.0},{"OBJECT_NAME":"ONEWEB-0401","OBJECT_ID":"2021-132N","EPOCH":"2026-04-07T04:25:55.255584","MEAN_MOTION":13.18691928,"ECCENTRICITY":0.0001946,"INCLINATION":87.9235,"RA_OF_ASC_NODE":349.5531,"ARG_OF_PERICENTER":85.1643,"MEAN_ANOMALY":274.9711,"EPHEMERIS_TYPE":0,"CLASSIFICATION_TYPE":"U","NORAD_CAT_ID":50481,"ELEMENT_SET_NO":999,"REV_AT_EPOCH":21225,"BSTAR":0.0037673000000000003,"MEAN_MOTION_DOT":1.499e-05,"MEAN_MOTION_DDOT":0.0},{"OBJECT_NAME":"ONEWEB-0402","OBJECT_ID":"2021-132P","EPOCH":"2026-04-07T03:33:38.666880","MEAN_MOTION":13.18687542,"ECCENTRICITY":0.0002034,"INCLINATION":87.9233,"RA_OF_ASC_NODE":349.5518,"ARG_OF_PERICENTER":93.5026,"MEAN_ANOMALY":266.6339,"EPHEMERIS_TYPE":0,"CLASSIFICATION_TYPE":"U","NORAD_CAT_ID":50482,"ELEMENT_SET_NO":999,"REV_AT_EPOCH":21227,"BSTAR":0.00019533000000000002,"MEAN_MOTION_DOT":9e-07,"MEAN_MOTION_DDOT":0.0},{"OBJECT_NAME":"ONEWEB-0403","OBJECT_ID":"2021-132Q","EPOCH":"2026-04-07T04:09:16.211520","MEAN_MOTION":13.18684559,"ECCENTRICITY":0.0001614,"INCLINATION":87.9237,"RA_OF_ASC_NODE":349.5699,"ARG_OF_PERICENTER":79.2991,"MEAN_ANOMALY":280.8323,"EPHEMERIS_TYPE":0,"CLASSIFICATION_TYPE":"U","NORAD_CAT_ID":50483,"ELEMENT_SET_NO":999,"REV_AT_EPOCH":21223,"BSTAR":0.00010941,"MEAN_MOTION_DOT":5.6e-07,"MEAN_MOTION_DDOT":0.0}]