ONEWEB-0388             
1 49314U 21090AM  26097.14004269 -.00000020  00000+0 -82280-4 0  9990
2 49314  87.9181 319.1372 0001672  88.9164 271.2160 13.19727111217041
ONEWEB-0389             
1 50469U 21132A   26097.19838860  .00000077  00000+0  16413-3 0  9991
2 50469  87.9187  19.9676 0001469  82.8312 277.2987 13.17648930208732
ONEWEB-0390             
1 50470U 21132B   26097.20008611  .00000155  00000+0  36548-3 0  9996
2 50470  87.9184  19.9678 0001814  71.0131 289.1197 13.17650223208739
ONEWEB-0391             
1 50471U 21132C   26097.20176283  .00000101  00000+0  22653-3 0  9991
2 50471  87.9185  19.9766 0001003  68.7607 291.3632 13.17649067208733
ONEWEB-0392             
1 50472U 21132D   26097.15620201  .00000003  00000+0 -24769-4 0  9993
2 50472  87.9192  19.9486 0001383  80.3312 279.7976 13.17646855208761
ONEWEB-0393             
1 50473U 21132E   26097.20768429  .00000126  00000+0  29156-3 0  9994
2 50473  87.9185  19.9610 0001650  79.0262 281.1055 13.17649092208760
ONEWEB-0394             
1 50474U 21132F   26097.15330731  .00000021  00000+0  21019-4 0  9995
2 50474  87.9234 349.5617 0001573  83.5855 276.5456 13.18685717212232
ONEWEB-0395             
1 50475U 21132G   26097.21105776  .00000276  00000+0  74234-3 0  9990
2 50475  87.8901  35.1788 0001704  74.3061 285.8255 13.11415539206412
ONEWEB-0396             
1 50476U 21132H   26097.14670858  .00000126  00000+0  28631-3 0  9995
2 50476  87.9234 349.5750 0001634  81.7731 278.3586 13.18684356212279
ONEWEB-0397             
1 50477U 21132J   26097.16155581  .00000016  00000+0  83761-5 0  9994
2 50477  87.9234 349.5721 0001676  87.1840 272.9484 13.18685380212258
ONEWEB-0398             
1 50478U 21132K   26097.10254986  .00000043  00000+0  86361-4 0  9996
2 50478  87.8920  35.1837 0001871  69.2800 290.8528 13.11419608206296
ONEWEB-0399             
1 50479U 21132L   26097.24154993 -.00000497  00000+0 -14396-2 0  9991
2 50479  87.8922  35.1659 0001509  91.3448 268.7853 13.11416339206308
ONEWEB-0400             
1 50480U 21132M   26097.14010607  .00000116  00000+0  26027-3 0  9996
2 50480  87.9235 349.5662 0001762  74.7711 285.3616 13.18685530212243
ONEWEB-0401             
1 50481U 21132N   26097.18466731  .00001499  00000+0  37673-2 0  9997
2 50481  87.9235 349.5531 0001946  85.1643 274.9711 13.18691928212252
ONEWEB-0402             
1 50482U 21132P   26097.14836420  .00000090  00000+0  19533-3 0  9992
2 50482  87.9233 349.5518 0002034  93.5026 266.6339 13.18687542212276
ONEWEB-0403             
1 50483U 21132Q   26097.17310430  .00000056  00000+0  10941-3 0  9990
2 50483  87.9237 349.5699 0001614  79.2991 280.8323 13.18684559212238
